{"type": "FeatureCollection", "features": [ {"type": "Feature", "properties": {"norad_id": 33841, "name": "COSMOS 2251 DEB", "group": "cosmos-2251-debris", "lat": -46.01006362690103, "lon": 102.93211316793925, "alt_km": 778.5499079484734, "timestamp": "2025-12-19T10:50:01.594448+00:00", "meta": {"OBJECT_NAME": "COSMOS 2251 DEB", "OBJECT_ID": "1993-036CJ", "EPOCH": "2025-12-18T20:43:25.829760", "MEAN_MOTION": 14.37869287, "ECCENTRICITY": 0.00207975, "INCLINATION": 74.0378, "RA_OF_ASC_NODE": 266.7672, "ARG_OF_PERICENTER": 346.0697, "MEAN_ANOMALY": 80.4985, "EPHEMERIS_TYPE": 0, "CLASSIFICATION_TYPE": "U", "NORAD_CAT_ID": 33841, "ELEMENT_SET_NO": 999, "REV_AT_EPOCH": 88202, "BSTAR": 0.00017361125, "MEAN_MOTION_DOT": 4.99e-06, "MEAN_MOTION_DDOT": 0}, "tle": {"line1": "1 33841U 93036CJ  25352.86349340  .00000499  00000+0  17361-3 0  9996", "line2": "2 33841  74.0378 266.7672 0020797 346.0697  80.4985 14.37869287882025"}}, "geometry": {"type": "Point", "coordinates": [102.93211316793925, -46.01006362690103]}}, {"type": "Feature", "properties": {"norad_id": 33842, "name": "COSMOS 2251 DEB", "group": "cosmos-2251-debris", "lat": -56.06570143373436, "lon": 52.37977499384891, "alt_km": 746.5371965177546, "timestamp": "2025-12-19T10:50:01.594459+00:00", "meta": {"OBJECT_NAME": "COSMOS 2251 DEB", "OBJECT_ID": "1993-036CK", "EPOCH": "2025-12-18T13:45:07.240608", "MEAN_MOTION": 14.42708642, "ECCENTRICITY": 0.0047445, "INCLINATION": 74.0321, "RA_OF_ASC_NODE": 208.8245, "ARG_OF_PERICENTER": 314.9859, "MEAN_ANOMALY": 44.7456, "EPHEMERIS_TYPE": 0, "CLASSIFICATION_TYPE": "U", "NORAD_CAT_ID": 33842, "ELEMENT_SET_NO": 999, "REV_AT_EPOCH": 88421, "BSTAR": 0.00021412852, "MEAN_MOTION_DOT": 6.95e-06, "MEAN_MOTION_DDOT": 0}, "tle": {"line1": "1 33842U 93036CK  25352.57300047  .00000695  00000+0  21413-3 0  9997", "line2": "2 33842  74.0321 208.8245 0047445 314.9859  44.7456 14.42708642884212"}}, "geometry": {"type": "Point", "coordinates": [52.37977499384891, -56.06570143373436]}}, {"type": "Feature", "properties": {"norad_id": 33844, "name": "COSMOS 2251 DEB", "group": "cosmos-2251-debris", "lat": -44.4630494673267, "lon": 24.244398145359572, "alt_km": 795.3570759847426, "timestamp": "2025-12-19T10:50:01.594471+00:00", "meta": {"OBJECT_NAME": "COSMOS 2251 DEB", "OBJECT_ID": "1993-036CM", "EPOCH": "2025-12-18T14:02:38.356224", "MEAN_MOTION": 14.33727645, "ECCENTRICITY": 0.00470679, "INCLINATION": 74.0669, "RA_OF_ASC_NODE": 42.107, "ARG_OF_PERICENTER": 62.147, "MEAN_ANOMALY": 102.4578, "EPHEMERIS_TYPE": 0, "CLASSIFICATION_TYPE": "U", "NORAD_CAT_ID": 33844, "ELEMENT_SET_NO": 999, "REV_AT_EPOCH": 87809, "BSTAR": 0.00027475609, "MEAN_MOTION_DOT": 7.47e-06, "MEAN_MOTION_DDOT": 0}, "tle": {"line1": "1 33844U 93036CM  25352.58516616  .00000747  00000+0  27476-3 0  9994", "line2": "2 33844  74.0669  42.1070 0047067  62.1470 102.4578 14.33727645878095"}}, "geometry": {"type": "Point", "coordinates": [24.244398145359572, -44.4630494673267]}}, {"type": "Feature", "properties": {"norad_id": 33848, "name": "COSMOS 2251 DEB", "group": "cosmos-2251-debris", "lat": 22.080791269700534, "lon": -8.17411403341589, "alt_km": 715.9369374045609, "timestamp": "2025-12-19T10:50:01.594481+00:00", "meta": {"OBJECT_NAME": "COSMOS 2251 DEB", "OBJECT_ID": "1993-036CR", "EPOCH": "2025-12-18T08:25:33.254976", "MEAN_MOTION": 14.44098746, "ECCENTRICITY": 0.00414379, "INCLINATION": 74.0314, "RA_OF_ASC_NODE": 347.2019, "ARG_OF_PERICENTER": 41.3163, "MEAN_ANOMALY": 23.9016, "EPHEMERIS_TYPE": 0, "CLASSIFICATION_TYPE": "U", "NORAD_CAT_ID": 33848, "ELEMENT_SET_NO": 999, "REV_AT_EPOCH": 87912, "BSTAR": 0.00085989713, "MEAN_MOTION_DOT": 2.95e-05, "MEAN_MOTION_DDOT": 0}, "tle": {"line1": "1 33848U 93036CR  25352.35107934  .00002950  00000+0  85990-3 0  9995", "line2": "2 33848  74.0314 347.2019 0041437  41.3163  23.9016 14.44098746879125"}}, "geometry": {"type": "Point", "coordinates": [-8.17411403341589, 22.080791269700534]}}, {"type": "Feature", "properties": {"norad_id": 33892, "name": "COSMOS 2251 DEB", "group": "cosmos-2251-debris", "lat": 11.166768673564547, "lon": -93.47482826961463, "alt_km": 760.8840932641733, "timestamp": "2025-12-19T10:50:01.594492+00:00", "meta": {"OBJECT_NAME": "COSMOS 2251 DEB", "OBJECT_ID": "1993-036CV", "EPOCH": "2025-12-18T17:45:28.585152", "MEAN_MOTION": 14.23358321, "ECCENTRICITY": 0.01125222, "INCLINATION": 73.8026, "RA_OF_ASC_NODE": 91.112, "ARG_OF_PERICENTER": 121.1848, "MEAN_ANOMALY": 1.7764, "EPHEMERIS_TYPE": 0, "CLASSIFICATION_TYPE": "U", "NORAD_CAT_ID": 33892, "ELEMENT_SET_NO": 999, "REV_AT_EPOCH": 87040, "BSTAR": 0.00051518178, "MEAN_MOTION_DOT": 1.221e-05, "MEAN_MOTION_DDOT": 0}, "tle": {"line1": "1 33892U 93036CV  25352.73991418  .00001221  00000+0  51518-3 0  9993", "line2": "2 33892  73.8026  91.1120 0112522 121.1848   1.7764 14.23358321870401"}}, "geometry": {"type": "Point", "coordinates": [-93.47482826961463, 11.166768673564547]}}, {"type": "Feature", "properties": {"norad_id": 33894, "name": "COSMOS 2251 DEB", "group": "cosmos-2251-debris", "lat": 47.52953722460582, "lon": 140.1361073548214, "alt_km": 1424.9343010465454, "timestamp": "2025-12-19T10:50:01.594502+00:00", "meta": {"OBJECT_NAME": "COSMOS 2251 DEB", "OBJECT_ID": "1993-036CX", "EPOCH": "2025-12-18T23:13:01.612992", "MEAN_MOTION": 13.21319073, "ECCENTRICITY": 0.05792358, "INCLINATION": 73.767, "RA_OF_ASC_NODE": 339.4418, "ARG_OF_PERICENTER": 258.0395, "MEAN_ANOMALY": 95.5228, "EPHEMERIS_TYPE": 0, "CLASSIFICATION_TYPE": "U", "NORAD_CAT_ID": 33894, "ELEMENT_SET_NO": 999, "REV_AT_EPOCH": 80790, "BSTAR": 0.001146262, "MEAN_MOTION_DOT": 1.117e-05, "MEAN_MOTION_DDOT": 0}, "tle": {"line1": "1 33894U 93036CX  25352.96737978  .00001117  00000+0  11463-2 0  9997", "line2": "2 33894  73.7670 339.4418 0579235 258.0395  95.5228 13.21319073807909"}}, "geometry": {"type": "Point", "coordinates": [140.1361073548214, 47.52953722460582]}}, {"type": "Feature", "properties": {"norad_id": 33896, "name": "COSMOS 2251 DEB", "group": "cosmos-2251-debris", "lat": 44.80929742564199, "lon": -52.32481277164861, "alt_km": 915.12694278652, "timestamp": "2025-12-19T10:50:01.594512+00:00", "meta": {"OBJECT_NAME": "COSMOS 2251 DEB", "OBJECT_ID": "1993-036CZ", "EPOCH": "2025-12-18T21:26:38.970240", "MEAN_MOTION": 14.19052698, "ECCENTRICITY": 0.0126767, "INCLINATION": 73.7662, "RA_OF_ASC_NODE": 145.5109, "ARG_OF_PERICENTER": 320.2244, "MEAN_ANOMALY": 203.3319, "EPHEMERIS_TYPE": 0, "CLASSIFICATION_TYPE": "U", "NORAD_CAT_ID": 33896, "ELEMENT_SET_NO": 999, "REV_AT_EPOCH": 86827, "BSTAR": 0.000343541, "MEAN_MOTION_DOT": 7.5e-06, "MEAN_MOTION_DDOT": 0}, "tle": {"line1": "1 33896U 93036CZ  25352.89350660  .00000750  00000+0  34354-3 0  9997", "line2": "2 33896  73.7662 145.5109 0126767 320.2244 203.3319 14.19052698868270"}}, "geometry": {"type": "Point", "coordinates": [-52.32481277164861, 44.80929742564199]}}, {"type": "Feature", "properties": {"norad_id": 33899, "name": "COSMOS 2251 DEB", "group": "cosmos-2251-debris", "lat": 74.03632891308236, "lon": 161.0393871035085, "alt_km": 653.0564069068432, "timestamp": "2025-12-19T10:50:01.594522+00:00", "meta": {"OBJECT_NAME": "COSMOS 2251 DEB", "OBJECT_ID": "1993-036DC", "EPOCH": "2025-12-18T06:44:58.430976", "MEAN_MOTION": 14.61238526, "ECCENTRICITY": 0.00563812, "INCLINATION": 74.0544, "RA_OF_ASC_NODE": 75.1417, "ARG_OF_PERICENTER": 136.2392, "MEAN_ANOMALY": 280.5576, "EPHEMERIS_TYPE": 0, "CLASSIFICATION_TYPE": "U", "NORAD_CAT_ID": 33899, "ELEMENT_SET_NO": 999, "REV_AT_EPOCH": 88920, "BSTAR": 0.00068574293, "MEAN_MOTION_DOT": 3.429e-05, "MEAN_MOTION_DDOT": 0}, "tle": {"line1": "1 33899U 93036DC  25352.28123184  .00003429  00000+0  68574-3 0  9999", "line2": "2 33899  74.0544  75.1417 0056381 136.2392 280.5576 14.61238526889200"}}, "geometry": {"type": "Point", "coordinates": [161.0393871035085, 74.03632891308236]}}, {"type": "Feature", "properties": {"norad_id": 33900, "name": "COSMOS 2251 DEB", "group": "cosmos-2251-debris", "lat": 52.566371197795476, "lon": 9.061772035031495, "alt_km": 688.1724961518476, "timestamp": "2025-12-19T10:50:01.594533+00:00", "meta": {"OBJECT_NAME": "COSMOS 2251 DEB", "OBJECT_ID": "1993-036DD", "EPOCH": "2025-12-18T23:10:56.220672", "MEAN_MOTION": 14.58367883, "ECCENTRICITY": 0.00465586, "INCLINATION": 74.0182, "RA_OF_ASC_NODE": 347.9998, "ARG_OF_PERICENTER": 138.3153, "MEAN_ANOMALY": 250.1843, "EPHEMERIS_TYPE": 0, "CLASSIFICATION_TYPE": "U", "NORAD_CAT_ID": 33900, "ELEMENT_SET_NO": 999, "REV_AT_EPOCH": 89127, "BSTAR": 0.00028928323, "MEAN_MOTION_DOT": 1.33e-05, "MEAN_MOTION_DDOT": 0}, "tle": {"line1": "1 33900U 93036DD  25352.96592848  .00001330  00000+0  28928-3 0  9992", "line2": "2 33900  74.0182 347.9998 0046558 138.3153 250.1843 14.58367883891273"}}, "geometry": {"type": "Point", "coordinates": [9.061772035031495, 52.566371197795476]}}, {"type": "Feature", "properties": {"norad_id": 33901, "name": "COSMOS 2251 DEB", "group": "cosmos-2251-debris", "lat": -3.8326188149322546, "lon": 33.96578431453721, "alt_km": 539.9994206875663, "timestamp": "2025-12-19T10:50:01.594543+00:00", "meta": {"OBJECT_NAME": "COSMOS 2251 DEB", "OBJECT_ID": "1993-036DE", "EPOCH": "2025-12-18T09:31:14.440224", "MEAN_MOTION": 15.16540123, "ECCENTRICITY": 0.00306456, "INCLINATION": 73.7748, "RA_OF_ASC_NODE": 37.3169, "ARG_OF_PERICENTER": 169.0613, "MEAN_ANOMALY": 191.1254, "EPHEMERIS_TYPE": 0, "CLASSIFICATION_TYPE": "U", "NORAD_CAT_ID": 33901, "ELEMENT_SET_NO": 999, "REV_AT_EPOCH": 89599, "BSTAR": 0.0024200713, "MEAN_MOTION_DOT": 0.00048056, "MEAN_MOTION_DDOT": 0}, "tle": {"line1": "1 33901U 93036DE  25352.39669491  .00048056  00000+0  24201-2 0  9994", "line2": "2 33901  73.7748  37.3169 0030645 169.0613 191.1254 15.16540123895998"}}, "geometry": {"type": "Point", "coordinates": [33.96578431453721, -3.8326188149322546]}}]}